CCSDS_OMM_VERS = 2.0
CREATION_DATE  = 
ORIGINATOR     = 

OBJECT_NAME    = SL-16 R/B
OBJECT_ID      = 1993-016B
CENTER_NAME    = EARTH
REF_FRAME      = TEME
TIME_SYSTEM    = UTC
MEAN_ELEMENT_THEORY = SGP/SGP4

EPOCH          = 2026-02-02T03:48:20.177568
MEAN_MOTION    = 14.15303151
ECCENTRICITY   = .00098591
INCLINATION    = 71.0083
RA_OF_ASC_NODE = 289.8109
ARG_OF_PERICENTER = 4.3556
MEAN_ANOMALY   = 355.7651

EPHEMERIS_TYPE = 0
CLASSIFICATION_TYPE = U
NORAD_CAT_ID   = 22566
ELEMENT_SET_NO = 999
REV_AT_EPOCH   = 69714
BSTAR          = .95821874E-4
MEAN_MOTION_DOT = .139E-5
MEAN_MOTION_DDOT = 0

CCSDS_OMM_VERS = 2.0
CREATION_DATE  = 
ORIGINATOR     = 

OBJECT_NAME    = COSMOS 2242
OBJECT_ID      = 1993-024A
CENTER_NAME    = EARTH
REF_FRAME      = TEME
TIME_SYSTEM    = UTC
MEAN_ELEMENT_THEORY = SGP/SGP4

EPOCH          = 2026-02-02T04:44:00.080160
MEAN_MOTION    = 14.96391567
ECCENTRICITY   = .00180123
INCLINATION    = 82.5205
RA_OF_ASC_NODE = 300.6604
ARG_OF_PERICENTER = 66.5974
MEAN_ANOMALY   = 293.7140

EPHEMERIS_TYPE = 0
CLASSIFICATION_TYPE = U
NORAD_CAT_ID   = 22626
ELEMENT_SET_NO = 999
REV_AT_EPOCH   = 77508
BSTAR          = .18939089E-3
MEAN_MOTION_DOT = .2178E-4
MEAN_MOTION_DDOT = 0

CCSDS_OMM_VERS = 2.0
CREATION_DATE  = 
ORIGINATOR     = 

OBJECT_NAME    = SL-16 R/B
OBJECT_ID      = 1993-059B
CENTER_NAME    = EARTH
REF_FRAME      = TEME
TIME_SYSTEM    = UTC
MEAN_ELEMENT_THEORY = SGP/SGP4

EPOCH          = 2026-02-02T06:09:48.407328
MEAN_MOTION    = 14.17224010
ECCENTRICITY   = .00195002
INCLINATION    = 70.9894
RA_OF_ASC_NODE = 85.8512
ARG_OF_PERICENTER = 264.8168
MEAN_ANOMALY   = 95.0730

EPHEMERIS_TYPE = 0
CLASSIFICATION_TYPE = U
NORAD_CAT_ID   = 22803
ELEMENT_SET_NO = 999
REV_AT_EPOCH   = 67451
BSTAR          = .11776764E-3
MEAN_MOTION_DOT = .19E-5
MEAN_MOTION_DDOT = 0

CCSDS_OMM_VERS = 2.0
CREATION_DATE  = 
ORIGINATOR     = 

OBJECT_NAME    = ARIANE 40 R/B
OBJECT_ID      = 1993-061H
CENTER_NAME    = EARTH
REF_FRAME      = TEME
TIME_SYSTEM    = UTC
MEAN_ELEMENT_THEORY = SGP/SGP4

EPOCH          = 2026-02-02T05:23:13.791552
MEAN_MOTION    = 14.32841134
ECCENTRICITY   = .001119
INCLINATION    = 98.4991
RA_OF_ASC_NODE = 102.7987
ARG_OF_PERICENTER = 34.7718
MEAN_ANOMALY   = 325.4195

EPHEMERIS_TYPE = 0
CLASSIFICATION_TYPE = U
NORAD_CAT_ID   = 22830
ELEMENT_SET_NO = 999
REV_AT_EPOCH   = 68902
BSTAR          = .10694325E-3
MEAN_MOTION_DOT = .249E-5
MEAN_MOTION_DDOT = 0

CCSDS_OMM_VERS = 2.0
CREATION_DATE  = 
ORIGINATOR     = 

OBJECT_NAME    = COSMOS 2278
OBJECT_ID      = 1994-023A
CENTER_NAME    = EARTH
REF_FRAME      = TEME
TIME_SYSTEM    = UTC
MEAN_ELEMENT_THEORY = SGP/SGP4

EPOCH          = 2026-02-02T07:21:10.723104
MEAN_MOTION    = 14.14365370
ECCENTRICITY   = .00063626
INCLINATION    = 71.0511
RA_OF_ASC_NODE = 249.1264
ARG_OF_PERICENTER = 80.1029
MEAN_ANOMALY   = 280.0812

EPHEMERIS_TYPE = 0
CLASSIFICATION_TYPE = U
NORAD_CAT_ID   = 23087
ELEMENT_SET_NO = 999
REV_AT_EPOCH   = 63980
BSTAR          = -.93994906E-4
MEAN_MOTION_DOT = -.227E-5
MEAN_MOTION_DDOT = 0

CCSDS_OMM_VERS = 2.0
CREATION_DATE  = 
ORIGINATOR     = 

OBJECT_NAME    = SL-16 R/B
OBJECT_ID      = 1994-023B
CENTER_NAME    = EARTH
REF_FRAME      = TEME
TIME_SYSTEM    = UTC
MEAN_ELEMENT_THEORY = SGP/SGP4

EPOCH          = 2026-02-02T07:09:25.210080
MEAN_MOTION    = 14.15004229
ECCENTRICITY   = .00044077
INCLINATION    = 71.0000
RA_OF_ASC_NODE = 145.2136
ARG_OF_PERICENTER = 318.2760
MEAN_ANOMALY   = 41.8026

EPHEMERIS_TYPE = 0
CLASSIFICATION_TYPE = U
NORAD_CAT_ID   = 23088
ELEMENT_SET_NO = 999
REV_AT_EPOCH   = 64108
BSTAR          = -.89259011E-4
MEAN_MOTION_DOT = -.221E-5
MEAN_MOTION_DDOT = 0

CCSDS_OMM_VERS = 2.0
CREATION_DATE  = 
ORIGINATOR     = 

OBJECT_NAME    = SL-16 R/B
OBJECT_ID      = 1994-074B
CENTER_NAME    = EARTH
REF_FRAME      = TEME
TIME_SYSTEM    = UTC
MEAN_ELEMENT_THEORY = SGP/SGP4

EPOCH          = 2026-02-02T03:28:45.886656
MEAN_MOTION    = 14.79362915
ECCENTRICITY   = .00061722
INCLINATION    = 97.7152
RA_OF_ASC_NODE = 65.3952
ARG_OF_PERICENTER = 350.1584
MEAN_ANOMALY   = 51.0194

EPHEMERIS_TYPE = 0
CLASSIFICATION_TYPE = U
NORAD_CAT_ID   = 23343
ELEMENT_SET_NO = 999
REV_AT_EPOCH   = 68199
BSTAR          = .71478999E-4
MEAN_MOTION_DOT = .483E-5
MEAN_MOTION_DDOT = 0

CCSDS_OMM_VERS = 2.0
CREATION_DATE  = 
ORIGINATOR     = 

OBJECT_NAME    = SL-16 R/B
OBJECT_ID      = 1994-077B
CENTER_NAME    = EARTH
REF_FRAME      = TEME
TIME_SYSTEM    = UTC
MEAN_ELEMENT_THEORY = SGP/SGP4

EPOCH          = 2026-02-02T07:02:50.795808
MEAN_MOTION    = 14.15556854
ECCENTRICITY   = .00045884
INCLINATION    = 70.9816
RA_OF_ASC_NODE = 66.9568
ARG_OF_PERICENTER = 243.6318
MEAN_ANOMALY   = 116.4334

EPHEMERIS_TYPE = 0
CLASSIFICATION_TYPE = U
NORAD_CAT_ID   = 23405
ELEMENT_SET_NO = 999
REV_AT_EPOCH   = 61122
BSTAR          = -.72048436E-4
MEAN_MOTION_DOT = -.189E-5
MEAN_MOTION_DDOT = 0

CCSDS_OMM_VERS = 2.0
CREATION_DATE  = 
ORIGINATOR     = 

OBJECT_NAME    = ARIANE 40+ R/B
OBJECT_ID      = 1995-021B
CENTER_NAME    = EARTH
REF_FRAME      = TEME
TIME_SYSTEM    = UTC
MEAN_ELEMENT_THEORY = SGP/SGP4

EPOCH          = 2026-02-02T03:48:59.911200
MEAN_MOTION    = 14.39744665
ECCENTRICITY   = .0005782
INCLINATION    = 98.4569
RA_OF_ASC_NODE = 105.1100
ARG_OF_PERICENTER = 243.4344
MEAN_ANOMALY   = 145.5398

EPHEMERIS_TYPE = 0
CLASSIFICATION_TYPE = U
NORAD_CAT_ID   = 23561
ELEMENT_SET_NO = 999
REV_AT_EPOCH   = 61413
BSTAR          = .11525323E-3
MEAN_MOTION_DOT = .317E-5
MEAN_MOTION_DDOT = 0

CCSDS_OMM_VERS = 2.0
CREATION_DATE  = 
ORIGINATOR     = 

OBJECT_NAME    = SL-16 R/B
OBJECT_ID      = 1995-058B
CENTER_NAME    = EARTH
REF_FRAME      = TEME
TIME_SYSTEM    = UTC
MEAN_ELEMENT_THEORY = SGP/SGP4

EPOCH          = 2026-02-02T02:05:07.532736
MEAN_MOTION    = 14.15488460
ECCENTRICITY   = .00126948
INCLINATION    = 71.0190
RA_OF_ASC_NODE = 255.0030
ARG_OF_PERICENTER = 183.6906
MEAN_ANOMALY   = 176.4126

EPHEMERIS_TYPE = 0
CLASSIFICATION_TYPE = U
NORAD_CAT_ID   = 23705
ELEMENT_SET_NO = 999
REV_AT_EPOCH   = 56281
BSTAR          = .98646875E-4
MEAN_MOTION_DOT = .145E-5
MEAN_MOTION_DDOT = 0

CCSDS_OMM_VERS = 2.0
CREATION_DATE  = 
ORIGINATOR     = 

OBJECT_NAME    = SL-16 R/B
OBJECT_ID      = 1996-051B
CENTER_NAME    = EARTH
REF_FRAME      = TEME
TIME_SYSTEM    = UTC
MEAN_ELEMENT_THEORY = SGP/SGP4

EPOCH          = 2026-02-02T01:07:44.167008
MEAN_MOTION    = 14.12405353
ECCENTRICITY   = .0018016
INCLINATION    = 70.7568
RA_OF_ASC_NODE = 250.6828
ARG_OF_PERICENTER = 197.3304
MEAN_ANOMALY   = 162.7203

EPHEMERIS_TYPE = 0
CLASSIFICATION_TYPE = U
NORAD_CAT_ID   = 24298
ELEMENT_SET_NO = 999
REV_AT_EPOCH   = 51661
BSTAR          = .6342253E-4
MEAN_MOTION_DOT = .68E-6
MEAN_MOTION_DDOT = 0

CCSDS_OMM_VERS = 2.0
CREATION_DATE  = 
ORIGINATOR     = 

OBJECT_NAME    = ORBVIEW 2 (SEASTAR)
OBJECT_ID      = 1997-037A
CENTER_NAME    = EARTH
REF_FRAME      = TEME
TIME_SYSTEM    = UTC
MEAN_ELEMENT_THEORY = SGP/SGP4

EPOCH          = 2026-02-02T06:54:16.895520
MEAN_MOTION    = 14.35465832
ECCENTRICITY   = .00027033
INCLINATION    = 98.8506
RA_OF_ASC_NODE = 196.6739
ARG_OF_PERICENTER = 145.0873
MEAN_ANOMALY   = 215.0489

EPHEMERIS_TYPE = 0
CLASSIFICATION_TYPE = U
NORAD_CAT_ID   = 24883
ELEMENT_SET_NO = 999
REV_AT_EPOCH   = 50339
BSTAR          = .12605042E-3
MEAN_MOTION_DOT = .316E-5
MEAN_MOTION_DDOT = 0

