SL-16 R/B               
1 22566U 93016B   26033.15856687  .00000139  00000+0  95822-4 0  9992
2 22566  71.0083 289.8109 0009859   4.3556 355.7651 14.15303151697146
COSMOS 2242             
1 22626U 93024A   26033.19722315  .00002178  00000+0  18939-3 0  9990
2 22626  82.5205 300.6604 0018012  66.5974 293.7140 14.96391567775084
SL-16 R/B               
1 22803U 93059B   26033.25681027  .00000190  00000+0  11777-3 0  9991
2 22803  70.9894  85.8512 0019500 264.8168  95.0730 14.17224010674512
ARIANE 40 R/B           
1 22830U 93061H   26033.22446518  .00000249  00000+0  10694-3 0  9997
2 22830  98.4991 102.7987 0011190  34.7718 325.4195 14.32841134689028
COSMOS 2278             
1 23087U 94023A   26033.30637411 -.00000227  00000+0 -93995-4 0  9998
2 23087  71.0511 249.1264 0006362  80.1029 280.0812 14.14365370639803
SL-16 R/B               
1 23088U 94023B   26033.29820845 -.00000221  00000+0 -89259-4 0  9994
2 23088  71.0000 145.2136 0004407 318.2760  41.8026 14.15004229641083
SL-16 R/B               
1 23343U 94074B   26033.14497554  .00000483  00000+0  71479-4 0  9998
2 23343  97.7152  65.3952 0006172 350.1584  51.0194 14.79362915681990
SL-16 R/B               
1 23405U 94077B   26033.29364347 -.00000189  00000+0 -72048-4 0  9997
2 23405  70.9816  66.9568 0004588 243.6318 116.4334 14.15556854611227
ARIANE 40+ R/B          
1 23561U 95021B   26033.15902675  .00000317  00000+0  11525-3 0  9990
2 23561  98.4569 105.1100 0005782 243.4344 145.5398 14.39744665614133
SL-16 R/B               
1 23705U 95058B   26033.08689274  .00000145  00000+0  98647-4 0  9999
2 23705  71.0190 255.0030 0012694 183.6906 176.4126 14.15488460562817
SL-16 R/B               
1 24298U 96051B   26033.04703897  .00000068  00000+0  63423-4 0  9993
2 24298  70.7568 250.6828 0018016 197.3304 162.7203 14.12405353516612
ORBVIEW 2 (SEASTAR)     
1 24883U 97037A   26033.28769555  .00000316  00000+0  12605-3 0  9998
2 24883  98.8506 196.6739 0002703 145.0873 215.0489 14.35465832503394
